DELTA 2 R/B(1)          
1 20453U 90008B   26012.86276351  .00040866  00000+0  60168-3 0  9997
2 20453  35.6028 179.0982 0102370 102.3430 258.8785 15.48424253917459
COSMOS 2058             
1 20465U 90010A   26012.95654778  .00002657  00000+0  15810-3 0  9996
2 20465  82.4688 102.3239 0010274 161.1089 199.0525 15.10801021933820
SL-14 R/B               
1 20466U 90010B   26013.10989867  .00000406  00000+0  46281-4 0  9992
2 20466  82.5041 319.5862 0021170 120.5951 239.7356 14.83507622920248
SL-14 R/B               
1 20511U 90018B   26013.14163882  .00000352  00000+0  41373-4 0  9993
2 20511  82.5216 275.0179 0014884 275.8479  84.1038 14.82084527914350
HST                     
1 20580U 90037B   26013.20217979  .00005464  00000+0  18345-3 0  9995
2 20580  28.4673  58.2564 0001987 205.0098 155.0401 15.28521186764817
SL-16 R/B               
1 20625U 90046B   26013.13333835  .00000145  00000+0  99350-4 0  9994
2 20625  70.9997  54.5913 0013284  19.7656 340.3979 14.15006993840530
COSMOS 2084             
1 20663U 90055A   26013.12592692  .00002295  00000+0  17293-3 0  9996
2 20663  62.7888 165.0311 0026386 179.3866 180.7272 15.05244488927950
SL-6 R/B(2)             
1 20666U 90055D   26012.90075741  .00001518  00000+0  12581-3 0  9997
2 20666  62.7836  83.5219 0016715 327.8445  32.1634 15.03257558929803
SL-8 R/B                
1 20775U 90078B   26013.03257270  .00011969  00000+0  36305-3 0  9998
2 20775  82.9055 301.2796 0368820 200.5318 158.0752 14.87035870801028
SL-8 R/B                
1 21088U 91006B   26013.07006590 -.00000020  00000+0 -35803-4 0  9990
2 21088  82.9406 211.4070 0022232 188.1173 296.5524 13.77492371756415
OKEAN-3                 
1 21397U 91039A   26013.08017558  .00001851  00000+0  13050-3 0  9996
2 21397  82.5160  30.7030 0015365 154.1204 206.0795 15.04341976856677
COSMOS 2151             
1 21422U 91042A   26013.11462120  .00001305  00000+0  10317-3 0  9999
2 21422  82.4978 137.2668 0011308 244.1057 115.9002 14.99842979854861
