CCSDS_OMM_VERS = 2.0
CREATION_DATE  = 
ORIGINATOR     = 

OBJECT_NAME    = DELTA 2 R/B(1)
OBJECT_ID      = 1990-008B
CENTER_NAME    = EARTH
REF_FRAME      = TEME
TIME_SYSTEM    = UTC
MEAN_ELEMENT_THEORY = SGP/SGP4

EPOCH          = 2026-01-12T20:42:22.767264
MEAN_MOTION    = 15.48424253
ECCENTRICITY   = .010237
INCLINATION    = 35.6028
RA_OF_ASC_NODE = 179.0982
ARG_OF_PERICENTER = 102.3430
MEAN_ANOMALY   = 258.8785

EPHEMERIS_TYPE = 0
CLASSIFICATION_TYPE = U
NORAD_CAT_ID   = 20453
ELEMENT_SET_NO = 999
REV_AT_EPOCH   = 91745
BSTAR          = .60168E-3
MEAN_MOTION_DOT = .40866E-3
MEAN_MOTION_DDOT = 0

CCSDS_OMM_VERS = 2.0
CREATION_DATE  = 
ORIGINATOR     = 

OBJECT_NAME    = COSMOS 2058
OBJECT_ID      = 1990-010A
CENTER_NAME    = EARTH
REF_FRAME      = TEME
TIME_SYSTEM    = UTC
MEAN_ELEMENT_THEORY = SGP/SGP4

EPOCH          = 2026-01-12T22:57:25.728192
MEAN_MOTION    = 15.10801021
ECCENTRICITY   = .0010274
INCLINATION    = 82.4688
RA_OF_ASC_NODE = 102.3239
ARG_OF_PERICENTER = 161.1089
MEAN_ANOMALY   = 199.0525

EPHEMERIS_TYPE = 0
CLASSIFICATION_TYPE = U
NORAD_CAT_ID   = 20465
ELEMENT_SET_NO = 999
REV_AT_EPOCH   = 93382
BSTAR          = .1581E-3
MEAN_MOTION_DOT = .2657E-4
MEAN_MOTION_DDOT = 0

CCSDS_OMM_VERS = 2.0
CREATION_DATE  = 
ORIGINATOR     = 

OBJECT_NAME    = SL-14 R/B
OBJECT_ID      = 1990-010B
CENTER_NAME    = EARTH
REF_FRAME      = TEME
TIME_SYSTEM    = UTC
MEAN_ELEMENT_THEORY = SGP/SGP4

EPOCH          = 2026-01-13T02:38:15.245088
MEAN_MOTION    = 14.83507622
ECCENTRICITY   = .002117
INCLINATION    = 82.5041
RA_OF_ASC_NODE = 319.5862
ARG_OF_PERICENTER = 120.5951
MEAN_ANOMALY   = 239.7356

EPHEMERIS_TYPE = 0
CLASSIFICATION_TYPE = U
NORAD_CAT_ID   = 20466
ELEMENT_SET_NO = 999
REV_AT_EPOCH   = 92024
BSTAR          = .46281E-4
MEAN_MOTION_DOT = .406E-5
MEAN_MOTION_DDOT = 0

CCSDS_OMM_VERS = 2.0
CREATION_DATE  = 
ORIGINATOR     = 

OBJECT_NAME    = SL-14 R/B
OBJECT_ID      = 1990-018B
CENTER_NAME    = EARTH
REF_FRAME      = TEME
TIME_SYSTEM    = UTC
MEAN_ELEMENT_THEORY = SGP/SGP4

EPOCH          = 2026-01-13T03:23:57.594048
MEAN_MOTION    = 14.82084527
ECCENTRICITY   = .0014884
INCLINATION    = 82.5216
RA_OF_ASC_NODE = 275.0179
ARG_OF_PERICENTER = 275.8479
MEAN_ANOMALY   = 84.1038

EPHEMERIS_TYPE = 0
CLASSIFICATION_TYPE = U
NORAD_CAT_ID   = 20511
ELEMENT_SET_NO = 999
REV_AT_EPOCH   = 91435
BSTAR          = .41373E-4
MEAN_MOTION_DOT = .352E-5
MEAN_MOTION_DDOT = 0

CCSDS_OMM_VERS = 2.0
CREATION_DATE  = 
ORIGINATOR     = 

OBJECT_NAME    = HST
OBJECT_ID      = 1990-037B
CENTER_NAME    = EARTH
REF_FRAME      = TEME
TIME_SYSTEM    = UTC
MEAN_ELEMENT_THEORY = SGP/SGP4

EPOCH          = 2026-01-13T04:51:08.333856
MEAN_MOTION    = 15.28521186
ECCENTRICITY   = .0001987
INCLINATION    = 28.4673
RA_OF_ASC_NODE = 58.2564
ARG_OF_PERICENTER = 205.0098
MEAN_ANOMALY   = 155.0401

EPHEMERIS_TYPE = 0
CLASSIFICATION_TYPE = U
NORAD_CAT_ID   = 20580
ELEMENT_SET_NO = 999
REV_AT_EPOCH   = 76481
BSTAR          = .18345E-3
MEAN_MOTION_DOT = .5464E-4
MEAN_MOTION_DDOT = 0

CCSDS_OMM_VERS = 2.0
CREATION_DATE  = 
ORIGINATOR     = 

OBJECT_NAME    = SL-16 R/B
OBJECT_ID      = 1990-046B
CENTER_NAME    = EARTH
REF_FRAME      = TEME
TIME_SYSTEM    = UTC
MEAN_ELEMENT_THEORY = SGP/SGP4

EPOCH          = 2026-01-13T03:12:00.433440
MEAN_MOTION    = 14.15006993
ECCENTRICITY   = .0013284
INCLINATION    = 70.9997
RA_OF_ASC_NODE = 54.5913
ARG_OF_PERICENTER = 19.7656
MEAN_ANOMALY   = 340.3979

EPHEMERIS_TYPE = 0
CLASSIFICATION_TYPE = U
NORAD_CAT_ID   = 20625
ELEMENT_SET_NO = 999
REV_AT_EPOCH   = 84053
BSTAR          = .9935E-4
MEAN_MOTION_DOT = .145E-5
MEAN_MOTION_DDOT = 0

CCSDS_OMM_VERS = 2.0
CREATION_DATE  = 
ORIGINATOR     = 

OBJECT_NAME    = COSMOS 2084
OBJECT_ID      = 1990-055A
CENTER_NAME    = EARTH
REF_FRAME      = TEME
TIME_SYSTEM    = UTC
MEAN_ELEMENT_THEORY = SGP/SGP4

EPOCH          = 2026-01-13T03:01:20.085888
MEAN_MOTION    = 15.05244488
ECCENTRICITY   = .0026386
INCLINATION    = 62.7888
RA_OF_ASC_NODE = 165.0311
ARG_OF_PERICENTER = 179.3866
MEAN_ANOMALY   = 180.7272

EPHEMERIS_TYPE = 0
CLASSIFICATION_TYPE = U
NORAD_CAT_ID   = 20663
ELEMENT_SET_NO = 999
REV_AT_EPOCH   = 92795
BSTAR          = .17293E-3
MEAN_MOTION_DOT = .2295E-4
MEAN_MOTION_DDOT = 0

CCSDS_OMM_VERS = 2.0
CREATION_DATE  = 
ORIGINATOR     = 

OBJECT_NAME    = SL-6 R/B(2)
OBJECT_ID      = 1990-055D
CENTER_NAME    = EARTH
REF_FRAME      = TEME
TIME_SYSTEM    = UTC
MEAN_ELEMENT_THEORY = SGP/SGP4

EPOCH          = 2026-01-12T21:37:05.440224
MEAN_MOTION    = 15.03257558
ECCENTRICITY   = .0016715
INCLINATION    = 62.7836
RA_OF_ASC_NODE = 83.5219
ARG_OF_PERICENTER = 327.8445
MEAN_ANOMALY   = 32.1634

EPHEMERIS_TYPE = 0
CLASSIFICATION_TYPE = U
NORAD_CAT_ID   = 20666
ELEMENT_SET_NO = 999
REV_AT_EPOCH   = 92980
BSTAR          = .12581E-3
MEAN_MOTION_DOT = .1518E-4
MEAN_MOTION_DDOT = 0

CCSDS_OMM_VERS = 2.0
CREATION_DATE  = 
ORIGINATOR     = 

OBJECT_NAME    = SL-8 R/B
OBJECT_ID      = 1990-078B
CENTER_NAME    = EARTH
REF_FRAME      = TEME
TIME_SYSTEM    = UTC
MEAN_ELEMENT_THEORY = SGP/SGP4

EPOCH          = 2026-01-13T00:46:54.281280
MEAN_MOTION    = 14.87035870
ECCENTRICITY   = .036882
INCLINATION    = 82.9055
RA_OF_ASC_NODE = 301.2796
ARG_OF_PERICENTER = 200.5318
MEAN_ANOMALY   = 158.0752

EPHEMERIS_TYPE = 0
CLASSIFICATION_TYPE = U
NORAD_CAT_ID   = 20775
ELEMENT_SET_NO = 999
REV_AT_EPOCH   = 80102
BSTAR          = .36305E-3
MEAN_MOTION_DOT = .11969E-3
MEAN_MOTION_DDOT = 0

CCSDS_OMM_VERS = 2.0
CREATION_DATE  = 
ORIGINATOR     = 

OBJECT_NAME    = SL-8 R/B
OBJECT_ID      = 1991-006B
CENTER_NAME    = EARTH
REF_FRAME      = TEME
TIME_SYSTEM    = UTC
MEAN_ELEMENT_THEORY = SGP/SGP4

EPOCH          = 2026-01-13T01:40:53.693760
MEAN_MOTION    = 13.77492371
ECCENTRICITY   = .0022232
INCLINATION    = 82.9406
RA_OF_ASC_NODE = 211.4070
ARG_OF_PERICENTER = 188.1173
MEAN_ANOMALY   = 296.5524

EPHEMERIS_TYPE = 0
CLASSIFICATION_TYPE = U
NORAD_CAT_ID   = 21088
ELEMENT_SET_NO = 999
REV_AT_EPOCH   = 75641
BSTAR          = -.35803E-4
MEAN_MOTION_DOT = -.2E-6
MEAN_MOTION_DDOT = 0

CCSDS_OMM_VERS = 2.0
CREATION_DATE  = 
ORIGINATOR     = 

OBJECT_NAME    = OKEAN-3
OBJECT_ID      = 1991-039A
CENTER_NAME    = EARTH
REF_FRAME      = TEME
TIME_SYSTEM    = UTC
MEAN_ELEMENT_THEORY = SGP/SGP4

EPOCH          = 2026-01-13T01:55:27.170112
MEAN_MOTION    = 15.04341976
ECCENTRICITY   = .0015365
INCLINATION    = 82.5160
RA_OF_ASC_NODE = 30.7030
ARG_OF_PERICENTER = 154.1204
MEAN_ANOMALY   = 206.0795

EPHEMERIS_TYPE = 0
CLASSIFICATION_TYPE = U
NORAD_CAT_ID   = 21397
ELEMENT_SET_NO = 999
REV_AT_EPOCH   = 85667
BSTAR          = .1305E-3
MEAN_MOTION_DOT = .1851E-4
MEAN_MOTION_DDOT = 0

CCSDS_OMM_VERS = 2.0
CREATION_DATE  = 
ORIGINATOR     = 

OBJECT_NAME    = COSMOS 2151
OBJECT_ID      = 1991-042A
CENTER_NAME    = EARTH
REF_FRAME      = TEME
TIME_SYSTEM    = UTC
MEAN_ELEMENT_THEORY = SGP/SGP4

EPOCH          = 2026-01-13T02:45:03.271680
MEAN_MOTION    = 14.99842979
ECCENTRICITY   = .0011308
INCLINATION    = 82.4978
RA_OF_ASC_NODE = 137.2668
ARG_OF_PERICENTER = 244.1057
MEAN_ANOMALY   = 115.9002

EPHEMERIS_TYPE = 0
CLASSIFICATION_TYPE = U
NORAD_CAT_ID   = 21422
ELEMENT_SET_NO = 999
REV_AT_EPOCH   = 85486
BSTAR          = .10317E-3
MEAN_MOTION_DOT = .1305E-4
MEAN_MOTION_DDOT = 0

